OBJECT_NAME,OBJECT_ID,EPOCH,MEAN_MOTION,ECCENTRICITY,INCLINATION,RA_OF_ASC_NODE,ARG_OF_PERICENTER,MEAN_ANOMALY,EPHEMERIS_TYPE,CLASSIFICATION_TYPE,NORAD_CAT_ID,ELEMENT_SET_NO,REV_AT_EPOCH,BSTAR,MEAN_MOTION_DOT,MEAN_MOTION_DDOT
COSMOS 2508 (RODNIK-S 14),2015-050B,2026-06-19T20:14:46.364352,12.42914408,.0015074,82.4878,76.5208,21.4238,338.7469,0,U,40921,999,48717,.52861E-3,.83E-6,0
COSMOS 2509 (RODNIK-S 15),2015-050C,2026-06-19T18:48:14.329152,12.42884293,.0015651,82.4886,76.6607,37.7637,322.4537,0,U,40922,999,48720,.12875E-2,.188E-5,0
LINGQIAO VIDEO A,2015-057B,2026-06-19T20:49:13.410912,14.77393581,.0015153,97.6621,165.5373,260.8452,99.1044,0,U,40959,999,57580,.13389E-4,.47E-6,0
LINGQIAO VIDEO B,2015-057C,2026-06-19T21:52:52.447296,14.77501880,.0015289,97.6586,166.7422,260.6082,99.3401,0,U,40960,999,57585,.51251E-4,.317E-5,0
JILIN-1,2015-057D,2026-06-19T20:33:08.790336,14.78163951,.0015369,97.6507,170.0905,253.3236,106.6288,0,U,40961,999,57600,.90427E-4,.607E-5,0
FOX-1A (AO-85),2015-058D,2026-06-19T18:24:49.502304,14.90978964,.013057,64.7745,270.9655,55.6095,305.7282,0,U,40967,999,11395,.16076E-3,.1694E-4,0
SINOD-D 1,2015-058E,2026-06-19T13:14:41.510112,14.95917149,.01191973,64.7746,251.5076,52.1415,309.0411,0,U,40968,999,11701,.19692009E-3,.2366E-4,0
ELEKTRO-L 2,2015-074A,2026-06-18T00:52:34.633344,1.00270556,.00009025,6.6975,70.5132,256.1704,298.2263,0,U,41105,999,3851,0,-.126E-5,0
DAMPE,2015-078A,2026-06-19T20:21:49.701888,15.30791331,.0013769,97.4556,176.3287,68.8035,291.4675,0,U,41173,999,58495,.38191E-4,.1061E-4,0
ORBCOMM FM110,2015-081D,2026-06-19T20:14:25.484064,14.58883660,.0002482,47.0032,348.8841,92.0645,268.0525,0,U,41182,999,55801,.13345E-3,.46E-5,0
ORBCOMM FM112,2015-081F,2026-06-19T12:57:09.546912,14.58907115,.00038569,46.9988,259.1230,227.4401,132.6160,0,U,41184,999,55929,.11418492E-3,.369E-5,0
ORBCOMM FM113,2015-081G,2026-06-19T12:23:36.534912,14.58860259,.00023755,47.0005,259.6104,232.5233,127.5437,0,U,41185,999,55927,.80780567E-4,.211E-5,0
ORBCOMM FM108,2015-081J,2026-06-18T00:58:24.502368,14.58870752,.00029879,47.0030,178.1625,224.9174,135.1471,0,U,41187,999,56020,.90814462E-4,.258E-5,0
ORBCOMM FM117,2015-081K,2026-06-19T10:39:47.089728,14.58865978,.00035594,46.9990,170.1588,233.3238,126.7321,0,U,41188,999,56045,.61424387E-4,.119E-5,0
ORBCOMM FM116,2015-081L,2026-06-19T13:28:49.741248,14.58886171,.00005204,47.0017,259.3943,91.8831,268.2114,0,U,41189,999,55928,.11799295E-3,.387E-5,0
HORYU-4,2016-012D,2026-06-19T20:59:04.248672,15.98255444,.0006394,30.9842,59.2608,289.3268,70.6702,0,U,41340,999,57124,.95819E-3,.470986E-2,.86172E-4
ZIYUAN 3-02 (ZY 3-02),2016-033A,2026-06-19T21:16:33.184416,15.21200935,.0012366,97.3832,246.6100,281.0781,78.9064,0,U,41556,999,55839,.19785E-3,.4352E-4,0
CARTOSAT-2C,2016-040A,2026-06-19T19:50:44.278368,15.19207199,.0010218,97.4477,230.7691,122.7248,237.4973,0,U,41599,999,55411,.1253E-3,.2572E-4,0
LAPAN-A3,2016-040E,2026-06-19T20:48:45.491616,15.33118833,.0010561,97.1491,166.9248,16.7454,343.4135,0,U,41603,999,55522,.86474E-4,.2695E-4,0
GAOFEN-3,2016-049A,2026-06-19T20:37:06.030048,14.42214829,.0001447,98.4009,178.6049,99.6720,260.4633,0,U,41727,999,51903,-.62517E-4,-.249E-5,0
CAS-2T & KS-1Q,2016-066G,2026-06-19T17:36:58.058784,14.44701664,.0342865,98.3821,246.4413,121.7773,241.7303,0,U,41847,999,50516,.19133E-3,.1315E-4,0
YUNHAI-1 01,2016-068A,2026-06-19T19:41:29.482368,14.32423618,.0005952,98.5841,181.8039,50.0158,310.1548,0,U,41857,999,50220,-.52255E-4,-.185E-5,0
RESOURCESAT-2A,2016-074A,2026-06-19T19:34:36.402240,14.21617930,.0003283,98.7524,244.2989,79.8999,280.2548,0,U,41877,999,49467,.13986E-3,.263E-5,0
TANSAT,2016-081A,2026-06-19T20:28:05.552256,14.59952171,.0019418,98.5363,171.1895,303.6215,56.3131,0,U,41898,999,50501,.26388E-4,.76E-6,0
