COSMOS 2508 (RODNIK-S *)
1 40921U 15050B   26170.84359218  .00000083  00000+0  52861-3 0  9998
2 40921  82.4878  76.5208 0015074  21.4238 338.7469 12.42914408487172
COSMOS 2509 (RODNIK-S *)
1 40922U 15050C   26170.78349918  .00000188  00000+0  12875-2 0  9994
2 40922  82.4886  76.6607 0015651  37.7637 322.4537 12.42884293487208
LINGQIAO VIDEO A        
1 40959U 15057B   26170.86751633  .00000047  00000+0  13389-4 0  9998
2 40959  97.6621 165.5373 0015153 260.8452  99.1044 14.77393581575802
LINGQIAO VIDEO B        
1 40960U 15057C   26170.91171814  .00000317  00000+0  51251-4 0  9993
2 40960  97.6586 166.7422 0015289 260.6082  99.3401 14.77501880575856
JILIN-1                 
1 40961U 15057D   26170.85635174  .00000607  00000+0  90427-4 0  9991
2 40961  97.6507 170.0905 0015369 253.3236 106.6288 14.78163951576000
FOX-1A (AO-85)          
1 40967U 15058D   26170.76723961  .00001694  00000+0  16076-3 0  9994
2 40967  64.7745 270.9655 0130570  55.6095 305.7282 14.90978964113954
SINOD-D 1               
1 40968U 15058E   26170.55186933  .00002366  00000+0  19692-3 0  9998
2 40968  64.7746 251.5076 0119197  52.1415 309.0411 14.95917149117013
ELEKTRO-L 2             
1 41105U 15074A   26169.03651196 -.00000126  00000+0  00000+0 0  9991
2 41105   6.6975  70.5132 0000902 256.1704 298.2263  1.00270556 38515
DAMPE                   
1 41173U 15078A   26170.84849192  .00001061  00000+0  38191-4 0  9991
2 41173  97.4556 176.3287 0013769  68.8035 291.4675 15.30791331584952
ORBCOMM FM110           
1 41182U 15081D   26170.84335051  .00000460  00000+0  13345-3 0  9994
2 41182  47.0032 348.8841 0002482  92.0645 268.0525 14.58883660558018
ORBCOMM FM112           
1 41184U 15081F   26170.53969383  .00000369  00000+0  11418-3 0  9990
2 41184  46.9988 259.1230 0003856 227.4401 132.6160 14.58907115559298
ORBCOMM FM113           
1 41185U 15081G   26170.51639508  .00000211  00000+0  80781-4 0  9998
2 41185  47.0005 259.6104 0002375 232.5233 127.5437 14.58860259559276
ORBCOMM FM108           
1 41187U 15081J   26169.04056137  .00000258  00000+0  90814-4 0  9996
2 41187  47.0030 178.1625 0002987 224.9174 135.1471 14.58870752560204
ORBCOMM FM117           
1 41188U 15081K   26170.44429502  .00000119  00000+0  61424-4 0  9994
2 41188  46.9990 170.1588 0003559 233.3238 126.7321 14.58865978560450
ORBCOMM FM116           
1 41189U 15081L   26170.56168682  .00000387  00000+0  11799-3 0  9993
2 41189  47.0017 259.3943 0000520  91.8831 268.2114 14.58886171559288
HORYU-4                 
1 41340U 16012D   26170.87435473  .00470986  86172-4  95819-3 0  9996
2 41340  30.9842  59.2608 0006394 289.3268  70.6702 15.98255444571248
ZIYUAN 3-02 (ZY 3-02)   
1 41556U 16033A   26170.88649519  .00004352  00000+0  19785-3 0  9996
2 41556  97.3832 246.6100 0012366 281.0781  78.9064 15.21200935558391
CARTOSAT-2C             
1 41599U 16040A   26170.82690137  .00002572  00000+0  12530-3 0  9990
2 41599  97.4477 230.7691 0010218 122.7248 237.4973 15.19207199554119
LAPAN-A3                
1 41603U 16040E   26170.86719319  .00002695  00000+0  86474-4 0  9999
2 41603  97.1491 166.9248 0010561  16.7454 343.4135 15.33118833555221
GAOFEN-3                
1 41727U 16049A   26170.85909757 -.00000249  00000+0 -62517-4 0  9998
2 41727  98.4009 178.6049 0001447  99.6720 260.4633 14.42214829519036
CAS-2T & KS-1Q          
1 41847U 16066G   26170.73400531  .00001315  00000+0  19133-3 0  9991
2 41847  98.3821 246.4413 0342865 121.7773 241.7303 14.44701664505161
YUNHAI-1 01             
1 41857U 16068A   26170.82048012 -.00000185  00000+0 -52255-4 0  9995
2 41857  98.5841 181.8039 0005952  50.0158 310.1548 14.32423618502207
RESOURCESAT-2A          
1 41877U 16074A   26170.81569910  .00000263  00000+0  13986-3 0  9990
2 41877  98.7524 244.2989 0003283  79.8999 280.2548 14.21617930494672
TANSAT                  
1 41898U 16081A   26170.85284204  .00000076  00000+0  26388-4 0  9998
2 41898  98.5363 171.1895 0019418 303.6215  56.3131 14.59952171505015
